{"type": "FeatureCollection", "features": [ {"type": "Feature", "properties": {"norad_id": 44543, "name": "BEIDOU-3 M23 (C45)", "group": "beidou", "lat": -15.742595833291183, "lon": 20.355794894579173, "alt_km": 21547.47465234154, "timestamp": "2025-12-21T09:37:22.920172+00:00", "meta": {"OBJECT_NAME": "BEIDOU-3 M23 (C45)", "OBJECT_ID": "2019-061B", "EPOCH": "2025-12-20T19:59:50.640000", "MEAN_MOTION": 1.86227682, "ECCENTRICITY": 0.00060744, "INCLINATION": 54.3995, "RA_OF_ASC_NODE": 188.7112, "ARG_OF_PERICENTER": 25.3362, "MEAN_ANOMALY": 153.5268, "EPHEMERIS_TYPE": 0, "CLASSIFICATION_TYPE": "U", "NORAD_CAT_ID": 44543, "ELEMENT_SET_NO": 999, "REV_AT_EPOCH": 4247, "BSTAR": 0, "MEAN_MOTION_DOT": 9.6e-07, "MEAN_MOTION_DDOT": 0}, "tle": {"line1": "1 44543U 19061B   25354.83322500  .00000096  00000+0  00000+0 0  9992", "line2": "2 44543  54.3995 188.7112 0006074  25.3362 153.5268  1.86227682 42472"}}, "geometry": {"type": "Point", "coordinates": [20.355794894579173, -15.742595833291183]}}, {"type": "Feature", "properties": {"norad_id": 44793, "name": "BEIDOU-3 M22 (C44)", "group": "beidou", "lat": 26.947778261094257, "lon": -32.35818262213767, "alt_km": 21508.061064273497, "timestamp": "2025-12-21T09:37:22.920183+00:00", "meta": {"OBJECT_NAME": "BEIDOU-3 M22 (C44)", "OBJECT_ID": "2019-078A", "EPOCH": "2025-12-19T04:51:35.344224", "MEAN_MOTION": 1.86232161, "ECCENTRICITY": 0.0006038, "INCLINATION": 54.1023, "RA_OF_ASC_NODE": 306.1592, "ARG_OF_PERICENTER": 24.3104, "MEAN_ANOMALY": 335.7082, "EPHEMERIS_TYPE": 0, "CLASSIFICATION_TYPE": "U", "NORAD_CAT_ID": 44793, "ELEMENT_SET_NO": 999, "REV_AT_EPOCH": 4129, "BSTAR": 0, "MEAN_MOTION_DOT": -7.7e-07, "MEAN_MOTION_DDOT": 0}, "tle": {"line1": "1 44793U 19078A   25353.20249241 -.00000077  00000+0  00000+0 0  9997", "line2": "2 44793  54.1023 306.1592 0006038  24.3104 335.7082  1.86232161 41295"}}, "geometry": {"type": "Point", "coordinates": [-32.35818262213767, 26.947778261094257]}}, {"type": "Feature", "properties": {"norad_id": 44794, "name": "BEIDOU-3 M21 (C43)", "group": "beidou", "lat": -43.66991380363811, "lon": -97.7173820902618, "alt_km": 21529.574932919557, "timestamp": "2025-12-21T09:37:22.920195+00:00", "meta": {"OBJECT_NAME": "BEIDOU-3 M21 (C43)", "OBJECT_ID": "2019-078B", "EPOCH": "2025-12-16T15:43:55.727904", "MEAN_MOTION": 1.86227668, "ECCENTRICITY": 0.00041169, "INCLINATION": 54.078, "RA_OF_ASC_NODE": 306.2132, "ARG_OF_PERICENTER": 11.942, "MEAN_ANOMALY": 348.0544, "EPHEMERIS_TYPE": 0, "CLASSIFICATION_TYPE": "U", "NORAD_CAT_ID": 44794, "ELEMENT_SET_NO": 999, "REV_AT_EPOCH": 4125, "BSTAR": 0, "MEAN_MOTION_DOT": -9.5e-07, "MEAN_MOTION_DDOT": 0}, "tle": {"line1": "1 44794U 19078B   25350.65550611 -.00000095  00000+0  00000+0 0  9990", "line2": "2 44794  54.0780 306.2132 0004116  11.9420 348.0544  1.86227668 41256"}}, "geometry": {"type": "Point", "coordinates": [-97.7173820902618, -43.66991380363811]}}, {"type": "Feature", "properties": {"norad_id": 44864, "name": "BEIDOU-3 M19 (C41)", "group": "beidou", "lat": 34.429268928233135, "lon": -138.3742153642, "alt_km": 21566.86957597583, "timestamp": "2025-12-21T09:37:22.920206+00:00", "meta": {"OBJECT_NAME": "BEIDOU-3 M19 (C41)", "OBJECT_ID": "2019-090A", "EPOCH": "2025-12-20T17:56:37.822272", "MEAN_MOTION": 1.86231652, "ECCENTRICITY": 0.00182855, "INCLINATION": 56.3995, "RA_OF_ASC_NODE": 68.6961, "ARG_OF_PERICENTER": 285.0297, "MEAN_ANOMALY": 134.3435, "EPHEMERIS_TYPE": 0, "CLASSIFICATION_TYPE": "U", "NORAD_CAT_ID": 44864, "ELEMENT_SET_NO": 999, "REV_AT_EPOCH": 4091, "BSTAR": 0, "MEAN_MOTION_DOT": -4e-07, "MEAN_MOTION_DDOT": 0}, "tle": {"line1": "1 44864U 19090A   25354.74765998 -.00000040  00000+0  00000+0 0  9992", "line2": "2 44864  56.3995  68.6961 0018285 285.0297 134.3435  1.86231652 40919"}}, "geometry": {"type": "Point", "coordinates": [-138.3742153642, 34.429268928233135]}}, {"type": "Feature", "properties": {"norad_id": 44865, "name": "BEIDOU-3 M20 (C42)", "group": "beidou", "lat": -37.41230677185627, "lon": -80.75935316622062, "alt_km": 21518.030144722576, "timestamp": "2025-12-21T09:37:22.920217+00:00", "meta": {"OBJECT_NAME": "BEIDOU-3 M20 (C42)", "OBJECT_ID": "2019-090B", "EPOCH": "2025-12-21T01:49:05.066976", "MEAN_MOTION": 1.86231552, "ECCENTRICITY": 0.001548, "INCLINATION": 56.4014, "RA_OF_ASC_NODE": 68.7196, "ARG_OF_PERICENTER": 297.2086, "MEAN_ANOMALY": 71.7471, "EPHEMERIS_TYPE": 0, "CLASSIFICATION_TYPE": "U", "NORAD_CAT_ID": 44865, "ELEMENT_SET_NO": 999, "REV_AT_EPOCH": 4090, "BSTAR": 0, "MEAN_MOTION_DOT": -3.8e-07, "MEAN_MOTION_DDOT": 0}, "tle": {"line1": "1 44865U 19090B   25355.07575309 -.00000038  00000+0  00000+0 0  9992", "line2": "2 44865  56.4014  68.7196 0015480 297.2086  71.7471  1.86231552 40901"}}, "geometry": {"type": "Point", "coordinates": [-80.75935316622062, -37.41230677185627]}}, {"type": "Feature", "properties": {"norad_id": 45344, "name": "BEIDOU-3 G2 (C60)", "group": "beidou", "lat": -2.532127742599037, "lon": -45.38993005697048, "alt_km": 35779.09147846922, "timestamp": "2025-12-21T09:37:22.920229+00:00", "meta": {"OBJECT_NAME": "BEIDOU-3 G2 (C60)", "OBJECT_ID": "2020-017A", "EPOCH": "2025-12-19T13:38:45.370752", "MEAN_MOTION": 1.00273166, "ECCENTRICITY": 0.0002079, "INCLINATION": 2.5096, "RA_OF_ASC_NODE": 44.0024, "ARG_OF_PERICENTER": 233.0917, "MEAN_ANOMALY": 96.0359, "EPHEMERIS_TYPE": 0, "CLASSIFICATION_TYPE": "U", "NORAD_CAT_ID": 45344, "ELEMENT_SET_NO": 999, "REV_AT_EPOCH": 2145, "BSTAR": 0, "MEAN_MOTION_DOT": -1.18e-06, "MEAN_MOTION_DDOT": 0}, "tle": {"line1": "1 45344U 20017A   25353.56858068 -.00000118  00000+0  00000+0 0  9993", "line2": "2 45344   2.5096  44.0024 0002079 233.0917  96.0359  1.00273166 21451"}}, "geometry": {"type": "Point", "coordinates": [-45.38993005697048, -2.532127742599037]}}, {"type": "Feature", "properties": {"norad_id": 45807, "name": "BEIDOU-3 G3 (C61)", "group": "beidou", "lat": -1.9979694956638858, "lon": -14.900951700337423, "alt_km": 35763.57756663122, "timestamp": "2025-12-21T09:37:22.920241+00:00", "meta": {"OBJECT_NAME": "BEIDOU-3 G3 (C61)", "OBJECT_ID": "2020-040A", "EPOCH": "2025-12-20T22:18:59.813280", "MEAN_MOTION": 1.00270204, "ECCENTRICITY": 0.00064792, "INCLINATION": 2.01, "RA_OF_ASC_NODE": 66.65, "ARG_OF_PERICENTER": 309.4052, "MEAN_ANOMALY": 159.0249, "EPHEMERIS_TYPE": 0, "CLASSIFICATION_TYPE": "U", "NORAD_CAT_ID": 45807, "ELEMENT_SET_NO": 999, "REV_AT_EPOCH": 2028, "BSTAR": 0, "MEAN_MOTION_DOT": -3.32e-06, "MEAN_MOTION_DDOT": 0}, "tle": {"line1": "1 45807U 20040A   25354.92985895 -.00000332  00000+0  00000+0 0  9991", "line2": "2 45807   2.0100  66.6500 0006479 309.4052 159.0249  1.00270204 20289"}}, "geometry": {"type": "Point", "coordinates": [-14.900951700337423, -1.9979694956638858]}}, {"type": "Feature", "properties": {"norad_id": 56564, "name": "BEIDOU-3 G4 (C62)", "group": "beidou", "lat": 0.8118757193196044, "lon": 34.594050155997664, "alt_km": 35793.9838642184, "timestamp": "2025-12-21T09:37:22.920253+00:00", "meta": {"OBJECT_NAME": "BEIDOU-3 G4 (C62)", "OBJECT_ID": "2023-066A", "EPOCH": "2025-12-21T02:07:38.549568", "MEAN_MOTION": 1.00271445, "ECCENTRICITY": 0.0002696, "INCLINATION": 0.7977, "RA_OF_ASC_NODE": 302.6837, "ARG_OF_PERICENTER": 226.3603, "MEAN_ANOMALY": 112.8404, "EPHEMERIS_TYPE": 0, "CLASSIFICATION_TYPE": "U", "NORAD_CAT_ID": 56564, "ELEMENT_SET_NO": 999, "REV_AT_EPOCH": 960, "BSTAR": 0, "MEAN_MOTION_DOT": -8.7e-07, "MEAN_MOTION_DDOT": 0}, "tle": {"line1": "1 56564U 23066A   25355.08864062 -.00000087  00000+0  00000+0 0  9991", "line2": "2 56564   0.7977 302.6837 0002696 226.3603 112.8404  1.00271445  9601"}}, "geometry": {"type": "Point", "coordinates": [34.594050155997664, 0.8118757193196044]}}, {"type": "Feature", "properties": {"norad_id": 58654, "name": "BEIDOU-3 M28 (C50)", "group": "beidou", "lat": -50.44400975723215, "lon": -55.72404303765818, "alt_km": 21526.972285667413, "timestamp": "2025-12-21T09:37:22.920264+00:00", "meta": {"OBJECT_NAME": "BEIDOU-3 M28 (C50)", "OBJECT_ID": "2023-207A", "EPOCH": "2025-12-18T08:16:11.764704", "MEAN_MOTION": 1.86229821, "ECCENTRICITY": 0.00026501, "INCLINATION": 55.5892, "RA_OF_ASC_NODE": 68.4116, "ARG_OF_PERICENTER": 272.4264, "MEAN_ANOMALY": 87.5728, "EPHEMERIS_TYPE": 0, "CLASSIFICATION_TYPE": "U", "NORAD_CAT_ID": 58654, "ELEMENT_SET_NO": 999, "REV_AT_EPOCH": 1347, "BSTAR": 0, "MEAN_MOTION_DOT": -6.6e-07, "MEAN_MOTION_DDOT": 0}, "tle": {"line1": "1 58654U 23207A   25352.34458061 -.00000066  00000+0  00000+0 0  9991", "line2": "2 58654  55.5892  68.4116 0002650 272.4264  87.5728  1.86229821 13471"}}, "geometry": {"type": "Point", "coordinates": [-55.72404303765818, -50.44400975723215]}}, {"type": "Feature", "properties": {"norad_id": 58655, "name": "BEIDOU-3 M26 (C48)", "group": "beidou", "lat": 20.277287991726983, "lon": 82.95787454716461, "alt_km": 21532.334432965083, "timestamp": "2025-12-21T09:37:22.920275+00:00", "meta": {"OBJECT_NAME": "BEIDOU-3 M26 (C48)", "OBJECT_ID": "2023-207B", "EPOCH": "2025-12-19T05:11:10.015296", "MEAN_MOTION": 1.86231346, "ECCENTRICITY": 0.0004042, "INCLINATION": 55.592, "RA_OF_ASC_NODE": 68.3684, "ARG_OF_PERICENTER": 258.4158, "MEAN_ANOMALY": 101.5732, "EPHEMERIS_TYPE": 0, "CLASSIFICATION_TYPE": "U", "NORAD_CAT_ID": 58655, "ELEMENT_SET_NO": 999, "REV_AT_EPOCH": 1347, "BSTAR": 0, "MEAN_MOTION_DOT": -5.7e-07, "MEAN_MOTION_DDOT": 0}, "tle": {"line1": "1 58655U 23207B   25353.21608814 -.00000057  00000+0  00000+0 0  9992", "line2": "2 58655  55.5920  68.3684 0004042 258.4158 101.5732  1.86231346 13473"}}, "geometry": {"type": "Point", "coordinates": [82.95787454716461, 20.277287991726983]}}]}